[{"OBJECT_NAME":"SNAP-3 EDDIE","OBJECT_ID":"2015-058J","EPOCH":"2026-03-09T10:37:04.410624","MEAN_MOTION":15.44637695,"ECCENTRICITY":0.00384043,"INCLINATION":64.7481,"RA_OF_ASC_NODE":75.5572,"ARG_OF_PERICENTER":73.6673,"MEAN_ANOMALY":286.8683,"EPHEMERIS_TYPE":0,"CLASSIFICATION_TYPE":"U","NORAD_CAT_ID":40972,"ELEMENT_SET_NO":999,"REV_AT_EPOCH":10354,"BSTAR":0.0012991754,"MEAN_MOTION_DOT":0.00062838,"MEAN_MOTION_DDOT":0},{"OBJECT_NAME":"BANDWAGON-2 OBJECT V","OBJECT_ID":"2024-247V","EPOCH":"2026-03-09T10:44:24.989280","MEAN_MOTION":15.44431692,"ECCENTRICITY":0.00083159,"INCLINATION":44.9939,"RA_OF_ASC_NODE":91.7715,"ARG_OF_PERICENTER":16.2729,"MEAN_ANOMALY":343.8426,"EPHEMERIS_TYPE":0,"CLASSIFICATION_TYPE":"U","NORAD_CAT_ID":62396,"ELEMENT_SET_NO":999,"REV_AT_EPOCH":6801,"BSTAR":0.0008906217,"MEAN_MOTION_DOT":0.00042031,"MEAN_MOTION_DDOT":0}]
