SNAP-3 EDDIE            
1 40972U 15058J   26068.44241216  .00062838  00000+0  12992-2 0  9998
2 40972  64.7481  75.5572 0038404  73.6673 286.8683 15.44637695103540
BANDWAGON-2 OBJECT V    
1 62396U 24247V   26068.44751145  .00042031  00000+0  89062-3 0  9995
2 62396  44.9939  91.7715 0008315  16.2729 343.8426 15.44431692 68014
